start=new Date('2022-01-24T00:00:00.000Z').valueOf();
sats=[{"MEAN_MOTION_DOT":"0.00007450","INCLINATION":"53.0550","LAUNCH_DATE":"2021-05-09","SEMIMAJOR_AXIS":"6925.321","EPHEMERIS_TYPE":"0","TLE_LINE1":"1 48463U 21040AM  22023.51633275  .00007450  00000-0  51841-3 0  9991","ARG_OF_PERICENTER":"75.0781","PERIOD":"95.592","BSTAR":"0.00051841000000","PERIAPSIS":"546.309","REF_FRAME":"TEME","ECCENTRICITY":"0.00012660","TIME_SYSTEM":"UTC","OBJECT_ID":"2021-040AM","FILE":"3280923","APOAPSIS":"548.063","RCS_SIZE":"LARGE","EPOCH":"2022-01-23T12:23:31.149600","ELEMENT_SET_NO":"999","MEAN_ELEMENT_THEORY":"SGP4","MEAN_ANOMALY":"285.0349","DECAY_DATE":null,"GP_ID":"194464722","OBJECT_TYPE":"PAYLOAD","RA_OF_ASC_NODE":"113.1043","MEAN_MOTION_DDOT":"0.0000000000000","REV_AT_EPOCH":"3948","CLASSIFICATION_TYPE":"U","CENTER_NAME":"EARTH","MEAN_MOTION":"15.06409019","COUNTRY_CODE":"US","NORAD_CAT_ID":"48463","TLE_LINE2":"2 48463  53.0550 113.1043 0001266  75.0781 285.0349 15.06409019 39481","OBJECT_NAME":"STARLINK-2689","SITE":"AFETR"},{"INCLINATION":"53.0552","MEAN_MOTION_DOT":"0.00004838","ARG_OF_PERICENTER":"77.5426","TLE_LINE1":"1 48464U 21040AN  22023.56149882  .00004838  00000-0  34338-3 0  9992","EPHEMERIS_TYPE":"0","SEMIMAJOR_AXIS":"6925.323","LAUNCH_DATE":"2021-05-09","PERIAPSIS":"546.240","BSTAR":"0.00034338000000","PERIOD":"95.592","TIME_SYSTEM":"UTC","ECCENTRICITY":"0.00013680","REF_FRAME":"TEME","MEAN_ANOMALY":"282.5716","MEAN_ELEMENT_THEORY":"SGP4","RCS_SIZE":"LARGE","ELEMENT_SET_NO":"999","APOAPSIS":"548.135","EPOCH":"2022-01-23T13:28:33.498048","FILE":"3280923","OBJECT_ID":"2021-040AN","REV_AT_EPOCH":"3948","MEAN_MOTION_DDOT":"0.0000000000000","RA_OF_ASC_NODE":"112.8989","OBJECT_TYPE":"PAYLOAD","GP_ID":"194464965","DECAY_DATE":null,"NORAD_CAT_ID":"48464","MEAN_MOTION":"15.06408377","COUNTRY_CODE":"US","CENTER_NAME":"EARTH","CLASSIFICATION_TYPE":"U","SITE":"AFETR","OBJECT_NAME":"STARLINK-2686","TLE_LINE2":"2 48464  53.0552 112.8989 0001368  77.5426 282.5716 15.06408377 39481"},{"NORAD_CAT_ID":"48465","MEAN_MOTION":"15.06393920","COUNTRY_CODE":"US","CLASSIFICATION_TYPE":"U","CENTER_NAME":"EARTH","OBJECT_NAME":"STARLINK-2681","SITE":"AFETR","TLE_LINE2":"2 48465  53.0573 113.1424 0001263  85.1206 274.9927 15.06393920 39484","MEAN_ANOMALY":"274.9927","FILE":"3280923","OBJECT_ID":"2021-040AP","MEAN_ELEMENT_THEORY":"SGP4","RCS_SIZE":"LARGE","EPOCH":"2022-01-23T12:08:56.497344","APOAPSIS":"548.107","ELEMENT_SET_NO":"999","REV_AT_EPOCH":"3948","MEAN_MOTION_DDOT":"0.0000000000000","GP_ID":"194463222","DECAY_DATE":null,"RA_OF_ASC_NODE":"113.1424","OBJECT_TYPE":"PAYLOAD","PERIAPSIS":"546.358","BSTAR":"0.00007881500000","PERIOD":"95.593","TIME_SYSTEM":"UTC","ECCENTRICITY":"0.00012630","REF_FRAME":"TEME","INCLINATION":"53.0573","MEAN_MOTION_DOT":"0.00000893","EPHEMERIS_TYPE":"0","ARG_OF_PERICENTER":"85.1206","TLE_LINE1":"1 48465U 21040AP  22023.50620946  .00000893  00000-0  78815-4 0  9998","LAUNCH_DATE":"2021-05-09","SEMIMAJOR_AXIS":"6925.367"},{"EPHEMERIS_TYPE":"0","ARG_OF_PERICENTER":"71.6831","TLE_LINE1":"1 48466U 21040AQ  22023.55781052  .00003284  00000-0  23925-3 0  9998","LAUNCH_DATE":"2021-05-09","SEMIMAJOR_AXIS":"6925.341","INCLINATION":"53.0552","MEAN_MOTION_DOT":"0.00003284","TIME_SYSTEM":"UTC","ECCENTRICITY":"0.00012680","REF_FRAME":"TEME","PERIAPSIS":"546.328","BSTAR":"0.00023925000000","PERIOD":"95.592","REV_AT_EPOCH":"3949","MEAN_MOTION_DDOT":"0.0000000000000","GP_ID":"194464472","DECAY_DATE":null,"RA_OF_ASC_NODE":"112.9113","OBJECT_TYPE":"PAYLOAD","MEAN_ANOMALY":"288.4296","FILE":"3280923","OBJECT_ID":"2021-040AQ","MEAN_ELEMENT_THEORY":"SGP4","RCS_SIZE":"LARGE","ELEMENT_SET_NO":"999","APOAPSIS":"548.084","EPOCH":"2022-01-23T13:23:14.828928","OBJECT_NAME":"STARLINK-2687","SITE":"AFETR","TLE_LINE2":"2 48466  53.0552 112.9113 0001268  71.6831 288.4296 15.06402495 39491","NORAD_CAT_ID":"48466","MEAN_MOTION":"15.06402495","COUNTRY_CODE":"US","CLASSIFICATION_TYPE":"U","CENTER_NAME":"EARTH"},{"ECCENTRICITY":"0.00014480","REF_FRAME":"TEME","TIME_SYSTEM":"UTC","BSTAR":"0.00023137000000","PERIOD":"95.592","PERIAPSIS":"546.222","SEMIMAJOR_AXIS":"6925.360","LAUNCH_DATE":"2021-05-09","ARG_OF_PERICENTER":"79.7799","TLE_LINE1":"1 48467U 21040AR  22023.51727517  .00003166  00000-0  23137-3 0  9995","EPHEMERIS_TYPE":"0","MEAN_MOTION_DOT":"0.00003166","INCLINATION":"53.0561","TLE_LINE2":"2 48467  53.0561 113.0959 0001448  79.7799 280.3353 15.06396226 39482","SITE":"AFETR","OBJECT_NAME":"STARLINK-2659","CENTER_NAME":"EARTH","CLASSIFICATION_TYPE":"U","NORAD_CAT_ID":"48467","MEAN_MOTION":"15.06396226","COUNTRY_CODE":"US","RA_OF_ASC_NODE":"113.0959","OBJECT_TYPE":"PAYLOAD","GP_ID":"194464223","DECAY_DATE":null,"REV_AT_EPOCH":"3948","MEAN_MOTION_DDOT":"0.0000000000000","MEAN_ELEMENT_THEORY":"SGP4","RCS_SIZE":"LARGE","EPOCH":"2022-01-23T12:24:52.574688","APOAPSIS":"548.228","ELEMENT_SET_NO":"999","FILE":"3280923","OBJECT_ID":"2021-040AR","MEAN_ANOMALY":"280.3353"},{"REV_AT_EPOCH":"4077","MEAN_MOTION_DDOT":"0.0000000000000","RA_OF_ASC_NODE":"112.5691","OBJECT_TYPE":"PAYLOAD","GP_ID":"194471140","DECAY_DATE":null,"MEAN_ANOMALY":"284.6111","MEAN_ELEMENT_THEORY":"SGP4","RCS_SIZE":"LARGE","EPOCH":"2022-01-23T15:09:25.956288","APOAPSIS":"548.156","ELEMENT_SET_NO":"999","FILE":"3281090","OBJECT_ID":"2021-040AS","SITE":"AFETR","OBJECT_NAME":"STARLINK-2685","TLE_LINE2":"2 48468  53.0553 112.5691 0001291  75.5021 284.6111 15.06384360 40778","NORAD_CAT_ID":"48468","COUNTRY_CODE":"US","MEAN_MOTION":"15.06384360","CENTER_NAME":"EARTH","CLASSIFICATION_TYPE":"U","ARG_OF_PERICENTER":"75.5021","TLE_LINE1":"1 48468U 21040AS  22023.63155042  .00002652  00000-0  19692-3 0  9997","EPHEMERIS_TYPE":"0","SEMIMAJOR_AXIS":"6925.396","LAUNCH_DATE":"2021-05-09","INCLINATION":"53.0553","MEAN_MOTION_DOT":"0.00002652","TIME_SYSTEM":"UTC","ECCENTRICITY":"0.00012910","REF_FRAME":"TEME","PERIAPSIS":"546.367","BSTAR":"0.00019692000000","PERIOD":"95.593"},{"TLE_LINE2":"2 48469  53.0534 113.1133 0001353 109.2434 250.8701 15.06408450 39481","OBJECT_NAME":"STARLINK-2661","SITE":"AFETR","CLASSIFICATION_TYPE":"U","CENTER_NAME":"EARTH","MEAN_MOTION":"15.06408450","COUNTRY_CODE":"US","NORAD_CAT_ID":"48469","DECAY_DATE":null,"GP_ID":"194463722","OBJECT_TYPE":"PAYLOAD","RA_OF_ASC_NODE":"113.1133","MEAN_MOTION_DDOT":"0.0000000000000","REV_AT_EPOCH":"3948","OBJECT_ID":"2021-040AT","FILE":"3280923","RCS_SIZE":"LARGE","APOAPSIS":"548.125","ELEMENT_SET_NO":"999","EPOCH":"2022-01-23T12:19:33.400992","MEAN_ELEMENT_THEORY":"SGP4","MEAN_ANOMALY":"250.8701","REF_FRAME":"TEME","ECCENTRICITY":"0.00013530","TIME_SYSTEM":"UTC","PERIOD":"95.592","BSTAR":"0.00024607000000","PERIAPSIS":"546.251","LAUNCH_DATE":"2021-05-09","SEMIMAJOR_AXIS":"6925.323","EPHEMERIS_TYPE":"0","TLE_LINE1":"1 48469U 21040AT  22023.51358103  .00003386  00000-0  24607-3 0  9995","ARG_OF_PERICENTER":"109.2434","MEAN_MOTION_DOT":"0.00003386","INCLINATION":"53.0534"},{"OBJECT_ID":"2021-040AU","FILE":"3280923","RCS_SIZE":"LARGE","APOAPSIS":"548.146","ELEMENT_SET_NO":"999","EPOCH":"2022-01-23T12:14:16.413216","MEAN_ELEMENT_THEORY":"SGP4","MEAN_ANOMALY":"295.7770","DECAY_DATE":null,"GP_ID":"194463973","OBJECT_TYPE":"PAYLOAD","RA_OF_ASC_NODE":"113.1212","MEAN_MOTION_DDOT":"0.0000000000000","REV_AT_EPOCH":"3947","CENTER_NAME":"EARTH","CLASSIFICATION_TYPE":"U","COUNTRY_CODE":"US","MEAN_MOTION":"15.06395901","NORAD_CAT_ID":"48470","TLE_LINE2":"2 48470  53.0556 113.1212 0001328  64.3356 295.7770 15.06395901 39470","OBJECT_NAME":"STARLINK-2675","SITE":"AFETR","MEAN_MOTION_DOT":"0.00005020","INCLINATION":"53.0556","LAUNCH_DATE":"2021-05-09","SEMIMAJOR_AXIS":"6925.361","EPHEMERIS_TYPE":"0","TLE_LINE1":"1 48470U 21040AU  22023.50991219  .00005020  00000-0  35573-3 0  9998","ARG_OF_PERICENTER":"64.3356","PERIOD":"95.592","BSTAR":"0.00035573000000","PERIAPSIS":"546.306","REF_FRAME":"TEME","ECCENTRICITY":"0.00013280","TIME_SYSTEM":"UTC"},{"NORAD_CAT_ID":"48471","COUNTRY_CODE":"US","MEAN_MOTION":"15.06399775","CENTER_NAME":"EARTH","CLASSIFICATION_TYPE":"U","SITE":"AFETR","OBJECT_NAME":"STARLINK-2684","TLE_LINE2":"2 48471  53.0552 112.2704 0001178  77.9314 282.1807 15.06399775 40780","MEAN_ANOMALY":"282.1807","MEAN_ELEMENT_THEORY":"SGP4","RCS_SIZE":"LARGE","APOAPSIS":"548.030","ELEMENT_SET_NO":"999","EPOCH":"2022-01-23T16:50:15.316224","FILE":"3281091","OBJECT_ID":"2021-040AV","REV_AT_EPOCH":"4078","MEAN_MOTION_DDOT":"0.0000000000000","RA_OF_ASC_NODE":"112.2704","OBJECT_TYPE":"PAYLOAD","GP_ID":"194470659","DECAY_DATE":null,"PERIAPSIS":"546.398","BSTAR":"0.00021066000000","PERIOD":"95.592","TIME_SYSTEM":"UTC","ECCENTRICITY":"0.00011780","REF_FRAME":"TEME","INCLINATION":"53.0552","MEAN_MOTION_DOT":"0.00002858","ARG_OF_PERICENTER":"77.9314","TLE_LINE1":"1 48471U 21040AV  22023.70156616  .00002858  00000-0  21066-3 0  9993","EPHEMERIS_TYPE":"0","SEMIMAJOR_AXIS":"6925.349","LAUNCH_DATE":"2021-05-09"},{"TLE_LINE2":"2 48472  53.0542 112.0409 0001110  70.2792 289.8317 15.06406626 39953","SITE":"AFETR","OBJECT_NAME":"STARLINK-2722","CENTER_NAME":"EARTH","CLASSIFICATION_TYPE":"U","MEAN_MOTION":"15.06406626","COUNTRY_CODE":"US","NORAD_CAT_ID":"48472","OBJECT_TYPE":"PAYLOAD","RA_OF_ASC_NODE":"112.0409","DECAY_DATE":null,"GP_ID":"194471176","MEAN_MOTION_DDOT":"0.0000000000000","REV_AT_EPOCH":"3995","ELEMENT_SET_NO":"999","RCS_SIZE":"LARGE","APOAPSIS":"547.962","EPOCH":"2022-01-23T17:59:15.722592","MEAN_ELEMENT_THEORY":"SGP4","OBJECT_ID":"2021-040AW","FILE":"3281092","MEAN_ANOMALY":"289.8317","REF_FRAME":"TEME","ECCENTRICITY":"0.00011100","TIME_SYSTEM":"UTC","PERIOD":"95.592","BSTAR":"0.00038878000000","PERIAPSIS":"546.425","SEMIMAJOR_AXIS":"6925.328","LAUNCH_DATE":"2021-05-09","TLE_LINE1":"1 48472U 21040AW  22023.74948753  .00005515  00000-0  38878-3 0  9991","ARG_OF_PERICENTER":"70.2792","EPHEMERIS_TYPE":"0","MEAN_MOTION_DOT":"0.00005515","INCLINATION":"53.0542"}];
